MALLIGYONG-1            
1 58400U 23179A   24113.89680234  .00013231  00000+0  57985-3 0  9996
2 58400  97.4115   1.5765 0011326  96.8945 263.3581 15.22067218 23315
